{"type": "FeatureCollection", "features": [ {"type": "Feature", "properties": {"norad_id": 57401, "name": "TIANMU-1 09", "group": "weather", "lat": 81.9874241904653, "lon": -38.29632585425597, "alt_km": 470.4406176673101, "timestamp": "2025-12-03T15:48:02.748600+00:00", "meta": {"OBJECT_NAME": "TIANMU-1 09", "OBJECT_ID": "2023-101C", "EPOCH": "2025-12-03T09:08:08.649888", "MEAN_MOTION": 15.27860251, "ECCENTRICITY": 0.00067505, "INCLINATION": 97.2841, "RA_OF_ASC_NODE": 26.7565, "ARG_OF_PERICENTER": 109.2927, "MEAN_ANOMALY": 250.9043, "EPHEMERIS_TYPE": 0, "CLASSIFICATION_TYPE": "U", "NORAD_CAT_ID": 57401, "ELEMENT_SET_NO": 999, "REV_AT_EPOCH": 13172, "BSTAR": 0.0003739117, "MEAN_MOTION_DOT": 0.00010108, "MEAN_MOTION_DDOT": 0}, "tle": {"line1": "1 57401U 23101C   25337.38065567  .00010108  00000+0  37391-3 0  9999", "line2": "2 57401  97.2841  26.7565 0006750 109.2927 250.9043 15.27860251131723"}}, "geometry": {"type": "Point", "coordinates": [-38.29632585425597, 81.9874241904653]}}, {"type": "Feature", "properties": {"norad_id": 57402, "name": "TIANMU-1 10", "group": "weather", "lat": -76.82147721001658, "lon": 174.71452528475152, "alt_km": 494.5871886494597, "timestamp": "2025-12-03T15:48:02.748609+00:00", "meta": {"OBJECT_NAME": "TIANMU-1 10", "OBJECT_ID": "2023-101D", "EPOCH": "2025-12-03T06:48:43.072704", "MEAN_MOTION": 15.27849181, "ECCENTRICITY": 0.00084905, "INCLINATION": 97.2922, "RA_OF_ASC_NODE": 27.5017, "ARG_OF_PERICENTER": 110.886, "MEAN_ANOMALY": 249.3289, "EPHEMERIS_TYPE": 0, "CLASSIFICATION_TYPE": "U", "NORAD_CAT_ID": 57402, "ELEMENT_SET_NO": 999, "REV_AT_EPOCH": 13170, "BSTAR": 0.00038487766, "MEAN_MOTION_DOT": 0.00010407, "MEAN_MOTION_DDOT": 0}, "tle": {"line1": "1 57402U 23101D   25337.28383186  .00010407  00000+0  38488-3 0  9999", "line2": "2 57402  97.2922  27.5017 0008490 110.8860 249.3289 15.27849181131703"}}, "geometry": {"type": "Point", "coordinates": [174.71452528475152, -76.82147721001658]}}, {"type": "Feature", "properties": {"norad_id": 57490, "name": "FENGYUN 3F", "group": "weather", "lat": 80.403308770641, "lon": -18.94395516792512, "alt_km": 817.7963562571649, "timestamp": "2025-12-03T15:48:02.748620+00:00", "meta": {"OBJECT_NAME": "FENGYUN 3F", "OBJECT_ID": "2023-111A", "EPOCH": "2025-12-03T06:56:28.815360", "MEAN_MOTION": 14.19889515, "ECCENTRICITY": 6.94e-05, "INCLINATION": 98.7095, "RA_OF_ASC_NODE": 45.7347, "ARG_OF_PERICENTER": 86.0195, "MEAN_ANOMALY": 274.1061, "EPHEMERIS_TYPE": 0, "CLASSIFICATION_TYPE": "U", "NORAD_CAT_ID": 57490, "ELEMENT_SET_NO": 999, "REV_AT_EPOCH": 12106, "BSTAR": 9.6652515e-05, "MEAN_MOTION_DOT": 1.61e-06, "MEAN_MOTION_DDOT": 0}, "tle": {"line1": "1 57490U 23111A   25337.28922240  .00000161  00000+0  96653-4 0  9992", "line2": "2 57490  98.7095  45.7347 0000694  86.0195 274.1061 14.19889515121065"}}, "geometry": {"type": "Point", "coordinates": [-18.94395516792512, 80.403308770641]}}, {"type": "Feature", "properties": {"norad_id": 58584, "name": "ARKTIKA-M 2", "group": "weather", "lat": 60.31506311512161, "lon": -66.52051576215614, "alt_km": 35241.66381239976, "timestamp": "2025-12-03T15:48:02.748630+00:00", "meta": {"OBJECT_NAME": "ARKTIKA-M 2", "OBJECT_ID": "2023-198A", "EPOCH": "2025-12-01T08:43:04.634112", "MEAN_MOTION": 2.00605427, "ECCENTRICITY": 0.68640288, "INCLINATION": 63.2218, "RA_OF_ASC_NODE": 176.1298, "ARG_OF_PERICENTER": 268.1507, "MEAN_ANOMALY": 18.8441, "EPHEMERIS_TYPE": 0, "CLASSIFICATION_TYPE": "U", "NORAD_CAT_ID": 58584, "ELEMENT_SET_NO": 999, "REV_AT_EPOCH": 1435, "BSTAR": 0, "MEAN_MOTION_DOT": 2.37e-06, "MEAN_MOTION_DDOT": 0}, "tle": {"line1": "1 58584U 23198A   25335.36324808  .00000237  00000+0  00000+0 0  9995", "line2": "2 58584  63.2218 176.1298 6864028 268.1507  18.8441  2.00605427 14356"}}, "geometry": {"type": "Point", "coordinates": [-66.52051576215614, 60.31506311512161]}}, {"type": "Feature", "properties": {"norad_id": 58645, "name": "TIANMU-1 11", "group": "weather", "lat": -10.836591890816162, "lon": 176.02483181034913, "alt_km": 502.44436516419864, "timestamp": "2025-12-03T15:48:02.748641+00:00", "meta": {"OBJECT_NAME": "TIANMU-1 11", "OBJECT_ID": "2023-205A", "EPOCH": "2025-12-03T07:05:20.871744", "MEAN_MOTION": 15.24414048, "ECCENTRICITY": 0.00088547, "INCLINATION": 97.3612, "RA_OF_ASC_NODE": 357.0863, "ARG_OF_PERICENTER": 347.3453, "MEAN_ANOMALY": 12.7561, "EPHEMERIS_TYPE": 0, "CLASSIFICATION_TYPE": "U", "NORAD_CAT_ID": 58645, "ELEMENT_SET_NO": 999, "REV_AT_EPOCH": 10765, "BSTAR": 0.00033120335, "MEAN_MOTION_DOT": 8.061e-05, "MEAN_MOTION_DDOT": 0}, "tle": {"line1": "1 58645U 23205A   25337.29538046  .00008061  00000+0  33120-3 0  9993", "line2": "2 58645  97.3612 357.0863 0008854 347.3453  12.7561 15.24414048107658"}}, "geometry": {"type": "Point", "coordinates": [176.02483181034913, -10.836591890816162]}}, {"type": "Feature", "properties": {"norad_id": 58646, "name": "TIANMU-1 12", "group": "weather", "lat": 45.922164880482875, "lon": -10.41992116889272, "alt_km": 487.641741927825, "timestamp": "2025-12-03T15:48:02.748650+00:00", "meta": {"OBJECT_NAME": "TIANMU-1 12", "OBJECT_ID": "2023-205B", "EPOCH": "2025-12-03T07:43:14.276928", "MEAN_MOTION": 15.24327904, "ECCENTRICITY": 0.0006648, "INCLINATION": 97.36, "RA_OF_ASC_NODE": 356.9206, "ARG_OF_PERICENTER": 333.1009, "MEAN_ANOMALY": 26.9883, "EPHEMERIS_TYPE": 0, "CLASSIFICATION_TYPE": "U", "NORAD_CAT_ID": 58646, "ELEMENT_SET_NO": 999, "REV_AT_EPOCH": 10764, "BSTAR": 0.00035281457, "MEAN_MOTION_DOT": 8.566e-05, "MEAN_MOTION_DDOT": 0}, "tle": {"line1": "1 58646U 23205B   25337.32169302  .00008566  00000+0  35281-3 0  9993", "line2": "2 58646  97.3600 356.9206 0006648 333.1009  26.9883 15.24327904107641"}}, "geometry": {"type": "Point", "coordinates": [-10.41992116889272, 45.922164880482875]}}, {"type": "Feature", "properties": {"norad_id": 58647, "name": "TIANMU-1 13", "group": "weather", "lat": -41.1770688824193, "lon": 170.95387062661925, "alt_km": 499.1717908499113, "timestamp": "2025-12-03T15:48:02.748659+00:00", "meta": {"OBJECT_NAME": "TIANMU-1 13", "OBJECT_ID": "2023-205C", "EPOCH": "2025-12-03T06:57:14.642784", "MEAN_MOTION": 15.24333269, "ECCENTRICITY": 0.00064097, "INCLINATION": 97.3628, "RA_OF_ASC_NODE": 357.0863, "ARG_OF_PERICENTER": 309.7826, "MEAN_ANOMALY": 50.2847, "EPHEMERIS_TYPE": 0, "CLASSIFICATION_TYPE": "U", "NORAD_CAT_ID": 58647, "ELEMENT_SET_NO": 999, "REV_AT_EPOCH": 10763, "BSTAR": 0.00035723465, "MEAN_MOTION_DOT": 8.675e-05, "MEAN_MOTION_DDOT": 0}, "tle": {"line1": "1 58647U 23205C   25337.28975281  .00008675  00000+0  35723-3 0  9992", "line2": "2 58647  97.3628 357.0863 0006409 309.7826  50.2847 15.24333269107634"}}, "geometry": {"type": "Point", "coordinates": [170.95387062661925, -41.1770688824193]}}, {"type": "Feature", "properties": {"norad_id": 58648, "name": "TIANMU-1 14", "group": "weather", "lat": -46.447350375991554, "lon": 4.615198038886695, "alt_km": 494.6347605681458, "timestamp": "2025-12-03T15:48:02.748685+00:00", "meta": {"OBJECT_NAME": "TIANMU-1 14", "OBJECT_ID": "2023-205D", "EPOCH": "2025-12-03T08:07:43.338720", "MEAN_MOTION": 15.24319049, "ECCENTRICITY": 0.00073048, "INCLINATION": 97.3559, "RA_OF_ASC_NODE": 356.4918, "ARG_OF_PERICENTER": 313.7637, "MEAN_ANOMALY": 46.2996, "EPHEMERIS_TYPE": 0, "CLASSIFICATION_TYPE": "U", "NORAD_CAT_ID": 58648, "ELEMENT_SET_NO": 999, "REV_AT_EPOCH": 10764, "BSTAR": 0.00036652164, "MEAN_MOTION_DOT": 8.901e-05, "MEAN_MOTION_DDOT": 0}, "tle": {"line1": "1 58648U 23205D   25337.33869605  .00008901  00000+0  36652-3 0  9995", "line2": "2 58648  97.3559 356.4918 0007304 313.7637  46.2996 15.24319049107643"}}, "geometry": {"type": "Point", "coordinates": [4.615198038886695, -46.447350375991554]}}, {"type": "Feature", "properties": {"norad_id": 58660, "name": "TIANMU-1 19", "group": "weather", "lat": 77.33783523133934, "lon": -55.721230862406664, "alt_km": 478.52152632717207, "timestamp": "2025-12-03T15:48:02.748695+00:00", "meta": {"OBJECT_NAME": "TIANMU-1 19", "OBJECT_ID": "2023-208A", "EPOCH": "2025-12-03T09:04:29.523936", "MEAN_MOTION": 15.27574632, "ECCENTRICITY": 0.00040907, "INCLINATION": 97.4393, "RA_OF_ASC_NODE": 88.4358, "ARG_OF_PERICENTER": 294.9411, "MEAN_ANOMALY": 65.1403, "EPHEMERIS_TYPE": 0, "CLASSIFICATION_TYPE": "U", "NORAD_CAT_ID": 58660, "ELEMENT_SET_NO": 999, "REV_AT_EPOCH": 10739, "BSTAR": 0.00047178551, "MEAN_MOTION_DOT": 0.00012659, "MEAN_MOTION_DDOT": 0}, "tle": {"line1": "1 58660U 23208A   25337.37811949  .00012659  00000+0  47179-3 0  9995", "line2": "2 58660  97.4393  88.4358 0004090 294.9411  65.1403 15.27574632107392"}}, "geometry": {"type": "Point", "coordinates": [-55.721230862406664, 77.33783523133934]}}, {"type": "Feature", "properties": {"norad_id": 58661, "name": "TIANMU-1 20", "group": "weather", "lat": 43.87180643667657, "lon": -83.63560419252264, "alt_km": 480.1970249162041, "timestamp": "2025-12-03T15:48:02.748705+00:00", "meta": {"OBJECT_NAME": "TIANMU-1 20", "OBJECT_ID": "2023-208B", "EPOCH": "2025-12-03T07:21:17.525376", "MEAN_MOTION": 15.28765418, "ECCENTRICITY": 0.00064625, "INCLINATION": 97.433, "RA_OF_ASC_NODE": 88.8027, "ARG_OF_PERICENTER": 305.3038, "MEAN_ANOMALY": 54.7597, "EPHEMERIS_TYPE": 0, "CLASSIFICATION_TYPE": "U", "NORAD_CAT_ID": 58661, "ELEMENT_SET_NO": 999, "REV_AT_EPOCH": 10745, "BSTAR": 0.00043578282, "MEAN_MOTION_DOT": 0.00012123, "MEAN_MOTION_DDOT": 0}, "tle": {"line1": "1 58661U 23208B   25337.30645284  .00012123  00000+0  43578-3 0  9991", "line2": "2 58661  97.4330  88.8027 0006462 305.3038  54.7597 15.28765418107458"}}, "geometry": {"type": "Point", "coordinates": [-83.63560419252264, 43.87180643667657]}}]}